[
    {
        "Altitude(m)": 559576.6587472518,
        "Argument of Periapsis(deg)": 0.019868973332140504,
        "Eccentricity": 0.0,
        "Inclination(deg)": 53.0,
        "Latitude(deg)": 51.724012565373926,
        "Longitude(deg)": -94.14244325365314,
        "Mean Anomaly(deg)": -258.81612139726724,
        "RAAN(deg)": 259.97043010558406,
        "Satellite Name": "Starlink Shell 1 1148",
        "Satellite Number": 1148,
        "Semi-Major Axis(m)": 6931778.249405717,
        "Time(s)": 570
    },
    {
        "Altitude(m)": 559540.0067786677,
        "Argument of Periapsis(deg)": 0.02021755181165174,
        "Eccentricity": 0.0,
        "Inclination(deg)": 53.0,
        "Latitude(deg)": 51.56322540335609,
        "Longitude(deg)": -93.2099984130135,
        "Mean Anomaly(deg)": -258.1892901937105,
        "RAAN(deg)": 259.9699113355066,
        "Satellite Name": "Starlink Shell 1 1148",
        "Satellite Number": 1148,
        "Semi-Major Axis(m)": 6931778.249405717,
        "Time(s)": 580
    },
    {
        "Altitude(m)": 559501.5032316617,
        "Argument of Periapsis(deg)": 0.020566130291162974,
        "Eccentricity": 0.0,
        "Inclination(deg)": 53.0,
        "Latitude(deg)": 51.39441577120989,
        "Longitude(deg)": -92.284561892795,
        "Mean Anomaly(deg)": -257.56245899015374,
        "RAAN(deg)": 259.96939256542913,
        "Satellite Name": "Starlink Shell 1 1148",
        "Satellite Number": 1148,
        "Semi-Major Axis(m)": 6931778.249405717,
        "Time(s)": 590
    },
    {
        "Altitude(m)": 559461.1714007527,
        "Argument of Periapsis(deg)": 0.020914708770674213,
        "Eccentricity": 0.0,
        "Inclination(deg)": 53.0,
        "Latitude(deg)": 51.21768970145021,
        "Longitude(deg)": -91.36637466330914,
        "Mean Anomaly(deg)": -256.93562778659714,
        "RAAN(deg)": 259.96887379535167,
        "Satellite Name": "Starlink Shell 1 1148",
        "Satellite Number": 1148,
        "Semi-Major Axis(m)": 6931778.249405717,
        "Time(s)": 600
    },
    {
        "Altitude(m)": 559419.0357037742,
        "Argument of Periapsis(deg)": 0.021263287250185448,
        "Eccentricity": 0.0,
        "Inclination(deg)": 53.0,
        "Latitude(deg)": 51.03315624809163,
        "Longitude(deg)": -90.45566126931936,
        "Mean Anomaly(deg)": -256.30879658304036,
        "RAAN(deg)": 259.96835502527415,
        "Satellite Name": "Starlink Shell 1 1148",
        "Satellite Number": 1148,
        "Semi-Major Axis(m)": 6931778.249405717,
        "Time(s)": 610
    },
    {
        "Altitude(m)": 559375.1216698907,
        "Argument of Periapsis(deg)": 0.021611865729696686,
        "Eccentricity": 0.0,
        "Inclination(deg)": 53.0,
        "Latitude(deg)": 50.84092720127155,
        "Longitude(deg)": -89.55262930343339,
        "Mean Anomaly(deg)": -255.68196537948367,
        "RAAN(deg)": 259.9678362551967,
        "Satellite Name": "Starlink Shell 1 1148",
        "Satellite Number": 1148,
        "Semi-Major Axis(m)": 6931778.249405717,
        "Time(s)": 620
    },
    {
        "Altitude(m)": 559329.4559271114,
        "Argument of Periapsis(deg)": 0.02196044420920792,
        "Eccentricity": 0.0,
        "Inclination(deg)": 53.0,
        "Latitude(deg)": 50.64111680476493,
        "Longitude(deg)": -88.65747063312112,
        "Mean Anomaly(deg)": -255.0551341759269,
        "RAAN(deg)": 259.9673174851192,
        "Satellite Name": "Starlink Shell 1 1148",
        "Satellite Number": 1148,
        "Semi-Major Axis(m)": 6931778.249405717,
        "Time(s)": 630
    },
    {
        "Altitude(m)": 559282.0661892326,
        "Argument of Periapsis(deg)": 0.02230902268871916,
        "Eccentricity": 0.0,
        "Inclination(deg)": 53.0,
        "Latitude(deg)": 50.43384147771497,
        "Longitude(deg)": -87.7703601745842,
        "Mean Anomaly(deg)": -254.4283029723702,
        "RAAN(deg)": 259.96679871504176,
        "Satellite Name": "Starlink Shell 1 1148",
        "Satellite Number": 1148,
        "Semi-Major Axis(m)": 6931778.249405717,
        "Time(s)": 640
    },
    {
        "Altitude(m)": 559232.9812422476,
        "Argument of Periapsis(deg)": 0.022657601168230398,
        "Eccentricity": 0.0,
        "Inclination(deg)": 53.0,
        "Latitude(deg)": 50.21921954179075,
        "Longitude(deg)": -86.8914572516865,
        "Mean Anomaly(deg)": -253.8014717688135,
        "RAAN(deg)": 259.9662799449643,
        "Satellite Name": "Starlink Shell 1 1148",
        "Satellite Number": 1148,
        "Semi-Major Axis(m)": 6931778.249405717,
        "Time(s)": 650
    },
    {
        "Altitude(m)": 559182.2309302146,
        "Argument of Periapsis(deg)": 0.023006179647741636,
        "Eccentricity": 0.0,
        "Inclination(deg)": 53.0,
        "Latitude(deg)": 49.99737095486807,
        "Longitude(deg)": -86.02090533259836,
        "Mean Anomaly(deg)": -253.1746405652568,
        "RAAN(deg)": 259.9657611748868,
        "Satellite Name": "Starlink Shell 1 1148",
        "Satellite Number": 1148,
        "Semi-Major Axis(m)": 6931778.249405717,
        "Time(s)": 660
    },
    {
        "Altitude(m)": 559129.8461406087,
        "Argument of Periapsis(deg)": 0.023354758127252868,
        "Eccentricity": 0.0,
        "Inclination(deg)": 53.0,
        "Latitude(deg)": 49.768417052208484,
        "Longitude(deg)": -85.15883182001086,
        "Mean Anomaly(deg)": -252.54780936170008,
        "RAAN(deg)": 259.9652424048093,
        "Satellite Name": "Starlink Shell 1 1148",
        "Satellite Number": 1148,
        "Semi-Major Axis(m)": 6931778.249405717,
        "Time(s)": 670
    },
    {
        "Altitude(m)": 559075.8587891486,
        "Argument of Periapsis(deg)": 0.023703336606764106,
        "Eccentricity": 0.0,
        "Inclination(deg)": 53.0,
        "Latitude(deg)": 49.53248029599367,
        "Longitude(deg)": -84.30534940258724,
        "Mean Anomaly(deg)": -251.92097815814336,
        "RAAN(deg)": 259.9647236347319,
        "Satellite Name": "Starlink Shell 1 1148",
        "Satellite Number": 1148,
        "Semi-Major Axis(m)": 6931778.249405717,
        "Time(s)": 680
    },
    {
        "Altitude(m)": 559020.3018040989,
        "Argument of Periapsis(deg)": 0.024051915086275345,
        "Eccentricity": 0.0,
        "Inclination(deg)": 53.0,
        "Latitude(deg)": 49.289684033952796,
        "Longitude(deg)": -83.46055593667892,
        "Mean Anomaly(deg)": -251.29414695458667,
        "RAAN(deg)": 259.9642048646544,
        "Satellite Name": "Starlink Shell 1 1148",
        "Satellite Number": 1148,
        "Semi-Major Axis(m)": 6931778.249405717,
        "Time(s)": 690
    },
    {
        "Altitude(m)": 558963.209110075,
        "Argument of Periapsis(deg)": 0.024400493565786583,
        "Eccentricity": 0.0,
        "Inclination(deg)": 53.0,
        "Latitude(deg)": 49.04015226770388,
        "Longitude(deg)": -82.6245343659716,
        "Mean Anomaly(deg)": -250.66731575102997,
        "RAAN(deg)": 259.96368609457693,
        "Satellite Name": "Starlink Shell 1 1148",
        "Satellite Number": 1148,
        "Semi-Major Axis(m)": 6931778.249405717,
        "Time(s)": 700
    },
    {
        "Altitude(m)": 558904.6156113322,
        "Argument of Periapsis(deg)": 0.024749072045297815,
        "Eccentricity": 0.0,
        "Inclination(deg)": 53.0,
        "Latitude(deg)": 48.78400943131782,
        "Longitude(deg)": -81.79735418681668,
        "Mean Anomaly(deg)": -250.0404845474732,
        "RAAN(deg)": 259.96316732449947,
        "Satellite Name": "Starlink Shell 1 1148",
        "Satellite Number": 1148,
        "Semi-Major Axis(m)": 6931778.249405717,
        "Time(s)": 710
    },
    {
        "Altitude(m)": 558844.5571745764,
        "Argument of Periapsis(deg)": 0.025097650524809053,
        "Eccentricity": 0.0,
        "Inclination(deg)": 53.0,
        "Latitude(deg)": 48.5213801805051,
        "Longitude(deg)": -80.9790714285264,
        "Mean Anomaly(deg)": -249.41365334391656,
        "RAAN(deg)": 259.962648554422,
        "Satellite Name": "Starlink Shell 1 1148",
        "Satellite Number": 1148,
        "Semi-Major Axis(m)": 6931778.249405717,
        "Time(s)": 720
    },
    {
        "Altitude(m)": 558783.070611273,
        "Argument of Periapsis(deg)": 0.02544622900432029,
        "Eccentricity": 0.0,
        "Inclination(deg)": 53.0,
        "Latitude(deg)": 48.25238919272288,
        "Longitude(deg)": -80.16972865669948,
        "Mean Anomaly(deg)": -248.78682214035982,
        "RAAN(deg)": 259.9621297843445,
        "Satellite Name": "Starlink Shell 1 1148",
        "Satellite Number": 1148,
        "Semi-Major Axis(m)": 6931778.249405717,
        "Time(s)": 730
    },
    {
        "Altitude(m)": 558720.1936594881,
        "Argument of Periapsis(deg)": 0.02579480748383153,
        "Eccentricity": 0.0,
        "Inclination(deg)": 53.0,
        "Latitude(deg)": 47.9771609784035,
        "Longitude(deg)": -79.3693565078577,
        "Mean Anomaly(deg)": -248.15999093680304,
        "RAAN(deg)": 259.961611014267,
        "Satellite Name": "Starlink Shell 1 1148",
        "Satellite Number": 1148,
        "Semi-Major Axis(m)": 6931778.249405717,
        "Time(s)": 740
    },
    {
        "Altitude(m)": 558655.9649652346,
        "Argument of Periapsis(deg)": 0.026143385963342765,
        "Eccentricity": 0.0,
        "Inclination(deg)": 53.0,
        "Latitude(deg)": 47.695819703415935,
        "Longitude(deg)": -78.57797372530078,
        "Mean Anomaly(deg)": -247.53315973324638,
        "RAAN(deg)": 259.96109224418956,
        "Satellite Name": "Starlink Shell 1 1148",
        "Satellite Number": 1148,
        "Semi-Major Axis(m)": 6931778.249405717,
        "Time(s)": 750
    }
]